nom,nature,adresse,code_postal,commune,the_geom
Collège de la Haute Azergues,COLLEGE,582 route de Lyon ,69870,Lamure-sur-Azergues,POINT (4.493104935354752 46.05505830754876)
Collège Eugénie de Pomey,COLLEGE,10 rue des Fontaines BP 31 ,69550,Amplepuis,POINT (4.334419897679285 45.97206389338844)
Collège privé Notre Dame Site Claudine Thévenet,COLLEGE,270 route Henri Fessy ST JEAN D ARDIERES 69220 BELLEVILLE EN BEAUJOLAIS,69220,Belleville-en-Beaujolais,POINT (4.709041447693256 46.11597543712845)
Collège Gilbert Chabroux,COLLEGE,35 rue Bourgchanin ,69110,Villeurbanne,POINT (4.9027324984989455 45.76567823174629)
Ecole secondaire privée institut de gestion Sociale des Armées,COLLEGE,6 rue Saint Maurice 69580 SATHONAY VILLAGE,69580,Sathonay-Village,POINT (4.880167433997411 45.83053916693582)
Ecole secondaire privée Collège au carré,COLLEGE,29 avenue Antoine de St Exupéry 69100 VILLEURBANNE,69100,Villeurbanne,POINT (4.8776126140425795 45.75919405874968)
Ecole secondaire privée Montessori'sGones,COLLEGE,7 avenue Birmingham 69004 LYON,69004,Lyon 4e Arrondissement,POINT (4.812414668594059 45.77537565059194)
Collège Jean d'Ormesson,COLLEGE,1 chemin de sous-dormont ,69740,Genas,POINT (5.024036207819844 45.72510241605994)
Collège privé La Plume Bleue - Union européenne pour l'enseignement privé musulman,COLLEGE,466 rue CHARLES SEVE 69400 VILLEFRANCHE SUR SAONE,69400,Villefranche-sur-Saône,POINT (4.747469234215421 45.97690962915795)
Ecole secondaire privée La Fourmi,COLLEGE,16 rue JEAN DESPARMET 69008 LYON,69008,Lyon 8e Arrondissement,POINT (4.877736960764198 45.73584402076989)
Ecole secondaire privée La Péraudière,COLLEGE,LIEU DIT LA PERAUDIERE LIEU DIT LA PERAUDIERE 69770 MONTROTTIER,69770,Montrottier,POINT (4.466349978582651 45.790130777650994)
Collège Asa Paulini,COLLEGE,900 avenue de l'Europe ,69480,Anse,POINT (4.712986205748601 45.93879178586329)
Ecole secondaire privée Declic,COLLEGE,31 rue DES TUILLIERS 69008 LYON,69008,Lyon 8e Arrondissement,POINT (4.864690225211713 45.74649634215559)
Section d'enseignement général et professionnel adapté du Collège Jean Jaurès,SECTION ENSEIGNT GEN. ET PROF. ADAPTE,54 rue Jean Jaurès 69100 VILLEURBANNE,69100,Villeurbanne,POINT (4.883449409156435 45.757598802511225)
Collège du Val d'Ardières,COLLEGE,474 rue de Verdun ,69430,Beaujeu,POINT (4.592804744637627 46.15134273849889)
Collège Émile Zola,COLLEGE,Avenue de Verdun ,69220,Belleville-en-Beaujolais,POINT (4.7492541426159125 46.10498945788737)
Section d'enseignement général et professionnel adapté du Collège Jean Charcot,SECTION ENSEIGNT GEN. ET PROF. ADAPTE,13 rue COMMANDANT CHARCOT 69005 LYON,69005,Lyon 5e Arrondissement,POINT (4.805426787641749 45.7535244316568)
Collège le Bassenon,COLLEGE,4 rue Girard Desargues ,69420,Condrieu,POINT (4.776331322441668 45.47158463989875)
Collège François Brossette,COLLEGE,Rue Croix-Dumont ,69470,Cours-la-Ville,POINT (4.321761731841764 46.095632080672324)
Collège du Mont Saint-Rigaud,COLLEGE,142 rue du collège Monsols ,69860,Deux-Grosnes,POINT (4.515259225435014 46.22233991079177)
Collège Pierre Brossolette,COLLEGE,19 boulevard Général de Gaulle ,69600,Oullins-Pierre-Bénite,POINT (4.790044348266654 45.71649429285691)
Collège Marcel Pagnol,COLLEGE,44 rue Charles de Gaulle ,69310,Oullins-Pierre-Bénite,POINT (4.8186190425480575 45.69940404149479)
Collège du Val d'Argent,COLLEGE,137 rue des Prairies ,69610,Sainte-Foy-l'Argentière,POINT (4.476793866825912 45.70713072070474)
Collège Bois Franc,COLLEGE,525 route du Beaujolais ,69830,Saint-Georges-de-Reneins,POINT (4.713020512701666 46.060652918137535)
Section d'enseignement général et professionnel adapté du Collège Le Plan du Loup,SECTION ENSEIGNT GEN. ET PROF. ADAPTE,35 allée ALBAN VISTEL 69110 STE FOY LES LYON,69110,Sainte-Foy-lès-Lyon,POINT (4.789657248014452 45.733299731900026)
Collège Victor Schoelcher,COLLEGE,273 rue Victor Schoelcher ,69009,Lyon 9e Arrondissement,POINT (4.795596483244692 45.78884825807842)
Collège Jean Moulin,COLLEGE,229 rue du collège ,69400,Villefranche-sur-Saône,POINT (4.714890389447981 45.98378288646118)
Collège Pierre Valdo,COLLEGE,11 chemin Claude Debussy BP  224 ,69515,Vaulx-en-Velin,POINT (4.92880538362763 45.77967096018125)
Collège les Iris,COLLEGE,287 rue de Pressensé ,69100,Villeurbanne,POINT (4.8968622457316275 45.76927020253777)
Collège Professeur Dargent,COLLEGE,5 rue Jeanne Koehler ,69003,Lyon 3e Arrondissement,POINT (4.870113433686356 45.74669927171092)
Collège Katia Krafft,COLLEGE,10 avenue de la République ,69200,Vénissieux,POINT (4.866614640480067 45.70755440374652)
Collège Jean Mermoz,COLLEGE,192 boulevard Pinel ,69008,Lyon 8e Arrondissement,POINT (4.888826360955457 45.733786848592075)
Collège Jean Claude Ruet,COLLEGE,95 avenue Jean-Baptiste Sornay ,69910,Villié-Morgon,POINT (4.681453185340324 46.162518119510324)
Section d'enseignement général et professionnel adapté du Collège Simone Veil,SECTION ENSEIGNT GEN. ET PROF. ADAPTE,Chemin de Revaison 69800 ST PRIEST,69800,Saint-Priest,POINT (4.921500290216627 45.70570676357742)
Collège privé Rudolf Steiner,COLLEGE,6 AVENUE GEORGES CLEMENCEAU 69230 ST GENIS LAVAL,69230,Saint-Genis-Laval,POINT (4.7984404935263205 45.70802536684607)
Collège Simone Veil,COLLEGE,71 chemin de Revaison ,69800,Saint-Priest,POINT (4.921500290216627 45.70570676357742)
Ecole secondaire privée Les couleurs de l'aube,COLLEGE,17 rue Pasteur 69580 SATHONAY CAMP,69580,Sathonay-Camp,POINT (4.872260276008384 45.82713240799686)
Collège Raoul Dufy,COLLEGE,74 bis rue Mazenod ,69003,Lyon 3e Arrondissement,POINT (4.847529171105776 45.7588153357252)
Collège Notre-Dame,COLLEGE,1 rue Honoré Petetin ,69700,Givors,POINT (4.771732557617095 45.59109248241571)
Collège Jules Michelet,COLLEGE,3 avenue Jean Moulin ,69200,Vénissieux,POINT (4.872875990843279 45.68846474601851)
Collège le Sacré-Coeur,COLLEGE,47 avenue du Docteur Terver ,69130,Écully,POINT (4.774631379164303 45.77027114221077)
Collège Fénelon,COLLEGE,1 rue Paul Michel Perret ,69006,Lyon 6e Arrondissement,POINT (4.85077050143411 45.77271910165229)
Collège Fromente - Saint-François,COLLEGE,1 route de Champagne BP 12 ,69370,Saint-Didier-au-Mont-d'Or,POINT (4.79444806927774 45.80949577838811)
Collège la Xavière,COLLEGE,9 rue Professeur Roux ,69200,Vénissieux,POINT (4.85710840125353 45.72948765362027)
Collège Champagnat,COLLEGE,20 rue Berthelot ,69210,L'Arbresle,POINT (4.61842699487011 45.83605408668954)
Collège Notre-Dame du Mas,COLLEGE,356 rue Jacques Cortay Le Bois d'Oingt ,69620,Val-d'Oingt,POINT (4.58282156305082 45.92449047269256)
Collège Sainte-Thérèse,COLLEGE,19 rue François Coquart ,69240,Thizy-les-Bourgs,POINT (4.2999619233936865 46.03437474209746)
Collège Notre-Dame du Bon Conseil,COLLEGE,23 rue de la Camille ,69600,Oullins-Pierre-Bénite,POINT (4.801924593049579 45.71394688780926)
Collège Notre-Dame de Lourdes,COLLEGE,260 rue de la Charrière ,69380,Civrieux-d'Azergues,POINT (4.716048283406815 45.85864567838224)
Collège Notre-Dame,COLLEGE,Montée du couvent Le Bourg ,69870,Claveisolles,POINT (4.491350269949538 46.10157658809829)
Collège les Marronniers,COLLEGE,19 Grande-Rue ,69420,Condrieu,POINT (4.768591616633989 45.46233793072251)
Collège Sainte-Marie,COLLEGE,198 rue Docteur Lheritier ,69470,Cours-la-Ville,POINT (4.3238628817410705 46.10256574780293)
Collège Pierre Termier - Site Montchat,COLLEGE,56 rue Ferdinand Buisson ,69003,Lyon 3e Arrondissement,POINT (4.88847660833571 45.749228778054515)
Collège Saint-Denis,COLLEGE,7 rue Hénon ,69004,Lyon 4e Arrondissement,POINT (4.831564174927937 45.779448459604055)
Collège de l'école Juive de Lyon,COLLEGE,40 rue Alexandre Boutin ,69100,Villeurbanne,POINT (4.868782771327288 45.768340008364206)
Collège Notre-Dame de Bellecombe,COLLEGE,31 rue Germain ,69006,Lyon 6e Arrondissement,POINT (4.866693800079422 45.76525172796419)
Collège Saint-Thomas d'Aquin,COLLEGE,6 chemin du Laud ,69440,Mornant,POINT (4.676748392836833 45.61939548098635)
Collège Saint-Laurent,COLLEGE,16 rue Côte Pinay ,69930,Saint-Laurent-de-Chamousset,POINT (4.464909468207414 45.737613138744045)
Collège Saint-Martin,COLLEGE,23 rue des Cherchères ,69850,Saint-Martin-en-Haut,POINT (4.5582463651390785 45.659227474541055)
Collège Alice Guy,COLLEGE,19 rue Paul Cazeneuve ,69008,Lyon 8e Arrondissement,POINT (4.86503535037878 45.73678337212248)
Collège Notre Dame de Bel Air,COLLEGE,30 avenue Charles de Gaulle BP 120 ,69172,Tarare,POINT (4.433620305043821 45.89782559489158)
Collège Saint-Sébastien,COLLEGE,8 rue du Chardonnet ,69670,Vaugneray,POINT (4.661225591126789 45.73184811197414)
Collège Louis Querbes,COLLEGE,3 rue Jean-Marie Chevalier ,69390,Vourles,POINT (4.773012185600134 45.66001420109819)
Collège Mère Teresa,COLLEGE,37 rue Gervais Bussière ,69100,Villeurbanne,POINT (4.869906491245023 45.773743851297176)
Collège Saint-Viateur,COLLEGE,2 rue du Docteur Bournet ,69550,Amplepuis,POINT (4.330886884137455 45.97156690234243)
Ecole secondaire privée Altéressens,COLLEGE,7 rue Maryse Bastié 69500 BRON,69500,Bron,POINT (4.9222310745406945 45.72695747566866)
Collège Jean Macé,COLLEGE,23 rue Edouard Vaillant ,69100,Villeurbanne,POINT (4.879893934342967 45.77700340250562)
Collège Joliot Curie,COLLEGE,10 rue de la Pagère ,69500,Bron,POINT (4.9145618813352545 45.74816199365469)
Collège Honoré de Balzac,COLLEGE,56 rue Ernest Renan ,69694,Vénissieux,POINT (4.8617216227416336 45.726121166962635)
Collège Laurent Mourguet,COLLEGE,3 bis rue jean rigaud ,69130,Écully,POINT (4.785587497662909 45.78199946893357)
Collège les Quatre Vents,COLLEGE,326 avenue du 11 Novembre BP 115 ,69593,L'Arbresle,POINT (4.607994864735114 45.83167177184721)
Collège Lucie Aubrac,COLLEGE,5 rue de Dobëln ,69700,Givors,POINT (4.769111417293747 45.60013087271504)
Collège le Plan du Loup,COLLEGE,35 allée Alban Vistel ,69110,Sainte-Foy-lès-Lyon,POINT (4.789657248014452 45.733299731900026)
Collège Maryse Bastié,COLLEGE,107 rue Emile Zola ,69150,Décines-Charpieu,POINT (4.952261032820869 45.76416082608698)
Collège Jacques Prévert,COLLEGE,1060 Avenue Burago Di Molgora ,69360,Saint-Symphorien-d'Ozon,POINT (4.861700972134797 45.63387372937077)
Collège Colette,COLLEGE,23 rue Colette ,69800,Saint-Priest,POINT (4.943514397624188 45.68965691972526)
Collège Maria Casarès,COLLEGE,115 rue Ampère ,69140,Rillieux-la-Pape,POINT (4.900112619036367 45.81816139482481)
Collège Léonard de Vinci,COLLEGE,34 boulevard du Raquin ,69680,Chassieu,POINT (4.9790358349086326 45.740954266537024)
Collège Faubert,COLLEGE,3 place Faubert ,69400,Villefranche-sur-Saône,POINT (4.72176251521499 45.99108692898481)
Collège Jeanne d'Arc,COLLEGE,1 rue Jules Ferry ,69150,Décines-Charpieu,POINT (4.961731731893434 45.764255214201626)
Collège Jeanne d'Arc,COLLEGE,4 rue Antoine Roybet CS 90003 ,69747,Genas,POINT (5.014779397610063 45.737365739383364)
Collège Saint-Charles,COLLEGE,26 avenue Victor Hugo ,69140,Rillieux-la-Pape,POINT (4.893605523790594 45.81920479203156)
Collège Clément Marot,COLLEGE,53 rue Deleuvre ,69004,Lyon 4e Arrondissement,POINT (4.825242028069482 45.78111637802782)
Collège Bellecombe,COLLEGE,10 rue de la Gaîté ,69006,Lyon 6e Arrondissement,POINT (4.862698486058412 45.767221036454785)
Collège Jean Jaurès,COLLEGE,54 rue Jean Jaurès ,69100,Villeurbanne,POINT (4.883449409156435 45.757598802511225)
Collège Aimé Césaire,COLLEGE,2 rue des Frères Bertrand ,69120,Vaulx-en-Velin,POINT (4.915881019301365 45.78502996668722)
Section d'enseignement général et professionnel adapté du Collège Aimé Cesaire,SECTION ENSEIGNT GEN. ET PROF. ADAPTE,2 rue DES FRERES BERTRAND 69120 VAULX EN VELIN,69120,Vaulx-en-Velin,POINT (4.915881019301365 45.78502996668722)
Collège les Servizières,COLLEGE,141 rue de la République ,69330,Meyzieu,POINT (5.015458953582749 45.76376720765009)
Collège Victor Grignard,COLLEGE,177 avenue Paul Santy ,69008,Lyon 8e Arrondissement,POINT (4.882625384599654 45.724836303688726)
Collège Jean Charcot,COLLEGE,13 rue du Commandant Charcot ,69005,Lyon 5e Arrondissement,POINT (4.805426787641749 45.7535244316568)
Section d'enseignement général et professionnel adapté du Collège Victor Schoelcher,SECTION ENSEIGNT GEN. ET PROF. ADAPTE,273 rue VICTOR SCHOELCHER 69009 LYON,69009,Lyon 9e Arrondissement,POINT (4.795596483244692 45.78884825807842)
Collège la Clavelière,COLLEGE,58 rue Jacquard ,69600,Oullins-Pierre-Bénite,POINT (4.816378481441571 45.710364162833045)
Collège les Pierres Dorées,COLLEGE,546 rue Jacques Cortay Le Bois d'Oingt ,69620,Val-d'Oingt,POINT (4.585248788465688 45.92214445671119)
Collège Louis Jouvet,COLLEGE,23 rue Docteur Dolard ,69100,Villeurbanne,POINT (4.87253436472823 45.76108176835967)
Collège Gisèle Halimi,COLLEGE,8  allée Eugénie Niboyet ,69007,Lyon 7e Arrondissement,POINT (4.835920755829996 45.74165590083777)
Collège André Lassagne,COLLEGE,5-7 rue André Lassagne ,69300,Caluire-et-Cuire,POINT (4.851248467175776 45.80668887367001)
Section d'enseignement général et professionnel adapté du Collège André Lassagne,SECTION ENSEIGNT GEN. ET PROF. ADAPTE,5 rue ANDRE LASSAGNE 69300 CALUIRE ET CUIRE,69300,Caluire-et-Cuire,POINT (4.85178646603722 45.80656295358937)
Collège Paul Éluard,COLLEGE,3 rue Georges Lyvet ,69694,Vénissieux,POINT (4.868958976382972 45.69977280396516)
Collège Jean de Tournes,COLLEGE,20 bis quai Jean-Baptiste Simon ,69270,Fontaines-sur-Saône,POINT (4.851774582371779 45.830363362689795)
Section d'enseignement général et professionnel adapté du Collège Jean Renoir,SECTION ENSEIGNT GEN. ET PROF. ADAPTE,4 avenue de l'Europe 69250 NEUVILLE SUR SAONE,69250,Neuville-sur-Saône,POINT (4.846531511463311 45.86959978862085)
Section d'enseignement général et professionnel adapté du Collège Jean-Philippe Rameau,SECTION ENSEIGNT GEN. ET PROF. ADAPTE,Rue JEAN-PHILIPPE RAMEAU 69410 CHAMPAGNE AU MONT D OR,69410,Champagne-au-Mont-d'Or,POINT (4.788188554322999 45.79275611790647)
Collège Jacques Duclos,COLLEGE,91 rue de la Poudrette ,69120,Vaulx-en-Velin,POINT (4.92134564127743 45.75577238579692)
Collège les Battières,COLLEGE,56 avenue Eisenhower ,69005,Lyon 5e Arrondissement,POINT (4.781154529679848 45.75107762801011)
Collège Louis Aragon,COLLEGE,Route de Corbas ,69200,Vénissieux,POINT (4.888641357416082 45.69237903872641)
Collège Daisy Georges Martin,COLLEGE,24 rue du 11 Novembre 1918 ,69540,Irigny,POINT (4.816855369967494 45.67270895546214)
Collège Simone Lagrange,COLLEGE,15 rue des Jardins ,69100,Villeurbanne,POINT (4.903774500573558 45.77926108783986)
Collège La Xavière,COLLEGE,39 rue  Clémenceau ,69800,Saint-Priest,POINT (4.978296340579365 45.70591290771092)
Collège des Gratte-Ciel - Môrice Leroux,COLLEGE,85 rue Francis de Pressensé ,69100,Villeurbanne,POINT (4.876924297291593 45.772004175829075)
Section d'enseignement général et professionnel adapté du Collège des Gratte-Ciel Môrice Leroux,SECTION ENSEIGNT GEN. ET PROF. ADAPTE,85 rue FRANCIS DE PRESSENSE BP 71345 69609 VILLEURBANNE CEDEX,69609,Villeurbanne,POINT (4.876924297291593 45.772004175829075)
Collège Georges Brassens,COLLEGE,50 rue Sully ,69150,Décines-Charpieu,POINT (4.975196301146556 45.768583357308685)
Section d'enseignement général et professionnel adapté du Collège Georges Brassens,SECTION ENSEIGNT GEN. ET PROF. ADAPTE,50 rue SULLY 69150 DECINES CHARPIEU,69150,Décines-Charpieu,POINT (4.975196301146556 45.768583357308685)
Collège Paul-Émile Victor,COLLEGE,3 bis avenue du Général Leclerc ,69140,Rillieux-la-Pape,POINT (4.905981369520654 45.81684375840409)
Collège Gérard Philipe,COLLEGE,6 avenue Salvador Allende ,69800,Saint-Priest,POINT (4.9344029487297645 45.7040582976507)
Section d'enseignement général et professionnel adapté du Collège Paul-Emile Victor,SECTION ENSEIGNT GEN. ET PROF. ADAPTE,3 bis avenue GENERAL LECLERC 69141 RILLIEUX LA PAPE CEDEX,69141,Rillieux-la-Pape,POINT (4.905981369520654 45.81684375840409)
Collège privé la Chrysalide,COLLEGE,4 rue Cronstadt 69007 LYON,69007,Lyon 7e Arrondissement,POINT (4.827745511132719 45.7524308338166)
Ecole secondaire privée Dé-Couverte,COLLEGE,5 avenue Edouard Millaud 69290 CRAPONNE,69290,Craponne,POINT (4.744975139751303 45.74729011806075)
Collège Jean-Jacques Rousseau,COLLEGE,29 rue François Mermet BP  65 ,69812,Tassin-la-Demi-Lune,POINT (4.769165826496545 45.75883414252643)
Collège La Platière,COLLEGE,182 allée du collège ,69240,Thizy-les-Bourgs,POINT (4.310899967645703 46.02948362748548)
Collège Élie Vignal,COLLEGE SPECIALISE,18 rue de Margnolles ,69300,Caluire-et-Cuire,POINT (4.83536240798309 45.784119189374536)
Section d'enseignement général et professionnel adapté du Collège Gérard Philipe,SECTION ENSEIGNT GEN. ET PROF. ADAPTE,6 avenue Salvador Allende 69800 ST PRIEST,69800,Saint-Priest,POINT (4.9344029487297645 45.7040582976507)
Collège Jean Monnet,COLLEGE,18 rue Seguin ,69002,Lyon 2e Arrondissement,POINT (4.822549525924388 45.74578468622834)
Collège Évariste Galois,COLLEGE,10 avenue du Carreau ,69330,Meyzieu,POINT (4.994395300002458 45.770055040908574)
Collège Henri Barbusse,COLLEGE,10 avenue Henri Barbusse BP  2 ,69511,Vaulx-en-Velin,POINT (4.917235287048298 45.78584196476795)
Collège Lamartine,COLLEGE,26 à 36 rue Louis Teillon ,69100,Villeurbanne,POINT (4.916918126529449 45.75062425677)
Collège Vendôme,COLLEGE,69 rue Vendôme ,69006,Lyon 6e Arrondissement,POINT (4.844770596031649 45.770544817477095)
Collège Georges Clemenceau,COLLEGE,40 rue Capitaine Robert Cluzan ,69007,Lyon 7e Arrondissement,POINT (4.841024950011324 45.75018277861452)
Collège Henri Longchambon,COLLEGE,24 rue Stéphane Coignet ,69008,Lyon 8e Arrondissement,POINT (4.874144766940048 45.72596123676008)
Section d'enseignement général et professionnel adapté du Collège Henri Longchambon,SECTION ENSEIGNT GEN. ET PROF. ADAPTE,24 rue STEPHANE COIGNET 69008 LYON,69008,Lyon 8e Arrondissement,POINT (4.874144766940048 45.72596123676008)
Collège Alain,COLLEGE,1 rue de Valence ,69190,Saint-Fons,POINT (4.855460398189425 45.696744263909004)
Collège Elsa Triolet,COLLEGE,3 avenue division Leclerc ,69200,Vénissieux,POINT (4.866355379613103 45.69747044474296)
Section d'enseignement général et professionnel adapté du Collège Elsa Triolet,SECTION ENSEIGNT GEN. ET PROF. ADAPTE,3 avenue DIVISION LECLERC 69694 VENISSIEUX CEDEX,69694,Vénissieux,POINT (4.866355379613103 45.69747044474296)
Collège Pierre de Ronsard,COLLEGE,9 route St-Sorlin ,69440,Mornant,POINT (4.668887134464426 45.61949074808311)
Section d'enseignement général et professionnel adapté du Collège Evariste Galois,SECTION ENSEIGNT GEN. ET PROF. ADAPTE,Avenue DU CARREAU BP 74 69882 MEYZIEU CEDEX,69882,Meyzieu,POINT (4.989566826549862 45.77587570662707)
Collège Charles Sénard,COLLEGE,10 rue Montessuy ,69300,Caluire-et-Cuire,POINT (4.843673395149213 45.79062212175324)
Section d'enseignement général et professionnel adapté du Collège Pierre Brossolette,SECTION ENSEIGNT GEN. ET PROF. ADAPTE,19 boulevard GENERAL DE GAULLE 69600 OULLINS PIERRE BENITE,69600,Oullins-Pierre-Bénite,POINT (4.790044348266654 45.71649429285691)
Collège Molière,COLLEGE,33 avenue du Château ,69003,Lyon 3e Arrondissement,POINT (4.885861441470983 45.749319381684785)
Section d'enseignement général et professionnel adapté du Collège Georges Clémenceau,SECTION ENSEIGNT GEN. ET PROF. ADAPTE,40 rue CAPITAINE ROBERT CLUZAN 69007 LYON,69007,Lyon 7e Arrondissement,POINT (4.841024950011324 45.75018277861452)
Section d'enseignement général et professionnel adapté du Collège Alain,SECTION ENSEIGNT GEN. ET PROF. ADAPTE,1 rue DE VALENCE 69190 ST FONS,69190,Saint-Fons,POINT (4.855460398189425 45.696744263909004)
Collège Jean-Philippe Rameau,COLLEGE,1 rue Jean-Philippe Rameau ,69410,Champagne-au-Mont-d'Or,POINT (4.788188554322999 45.79275611790647)
Section d'enseignement général et professionnel adapté du Collège Henri Barbusse,SECTION ENSEIGNT GEN. ET PROF. ADAPTE,10 avenue Henri Barbusse BP 2 69511 VAULX EN VELIN CEDEX,69511,Vaulx-en-Velin,POINT (4.917235287048298 45.78584196476795)
Collège Boris Vian,COLLEGE,115 rue du Grisard ,69800,Saint-Priest,POINT (4.961193908029515 45.696751164144246)
Collège Émile Malfroy,COLLEGE,3 rue de la République ,69520,Grigny-sur-Rhône,POINT (4.785457621860339 45.6072403510552)
Collège Maurice Utrillo,COLLEGE,26 rue du Forest ,69400,Limas,POINT (4.704879941151014 45.981453490958096)
Section d'enseignement général et professionnel adapté du Collège Maurice Utrillo,SECTION ENSEIGNT GEN. ET PROF. ADAPTE,Rue DU FOREST - LIMAS BP 478 69665 VILLEFRANCHE SUR SAONE CEDEX,69665,Limas,POINT (4.7030122036400845 45.980173774242004)
Collège Jean Rostand,COLLEGE,2 rue de l'EDF BP 33 ,69290,Craponne,POINT (4.727599973851661 45.74504107994229)
Collège Jean Renoir,COLLEGE,4 avenue de l'Europe ,69250,Neuville-sur-Saône,POINT (4.846531511463311 45.86959978862085)
Section d'enseignement général et professionnel adapté du Collège Emile Malfroy,SECTION ENSEIGNT GEN. ET PROF. ADAPTE,3 rue de la République 69520 GRIGNY SUR RHONE,69520,Grigny-sur-Rhône,POINT (4.785457621860339 45.6072403510552)
Collège Alexis Kandelaft,COLLEGE,3 rue Pierre de Coubertin ,69380,Chazay-d'Azergues,POINT (4.710115822622221 45.8722839978918)
Collège privé L'Envolée,COLLEGE,611 route DU MONT THOU 69450 ST CYR AU MONT D OR,69450,Saint-Cyr-au-Mont-d'Or,POINT (4.806918158227054 45.83121425789148)
Collège Aux Lazaristes - La Salle,COLLEGE,45 rue Denfert-Rochereau ,69004,Lyon 4e Arrondissement,POINT (4.826493204137478 45.77698609905252)
Collège privé La Passerelle,COLLEGE,212 rue des martyrs de la libération PIERRE BENITE 69310 OULLINS PIERRE BENITE,69310,Oullins-Pierre-Bénite,POINT (4.82731526222459 45.69641614080585)
Section d'enseignement général et professionnel adapté du Collège Louis Aragon,SECTION ENSEIGNT GEN. ET PROF. ADAPTE,Route DE CORBAS 69694 VENISSIEUX CEDEX,69694,Vénissieux,POINT (4.8911546914828214 45.68991129670804)
Collège Frédéric Mistral,COLLEGE,96 chemin sous le Fort ,69320,Feyzin,POINT (4.8617004145153615 45.670373204970375)
Collège Jean Giono,COLLEGE,43 route d'Irigny ,69230,Saint-Genis-Laval,POINT (4.801150443736929 45.69017576197406)
Ecole secondaire privée Ecolline,COLLEGE,Lieu-dit La Courbière 69850 ST MARTIN EN HAUT,69850,Saint-Martin-en-Haut,POINT (4.567516400204933 45.681291074172684)
Collège Pablo Picasso,COLLEGE,17 rue de Reims ,69500,Bron,POINT (4.906858743788634 45.73912918386767)
Section d'enseignement général et professionnel adapté du Collège Pablo Picasso,SECTION ENSEIGNT GEN. ET PROF. ADAPTE,17 rue DE REIMS 69500 BRON,69500,Bron,POINT (4.906858743788634 45.73912918386767)
Collège Gabriel Rosset,COLLEGE,74 rue Challemel Lacour ,69364,Lyon 7e Arrondissement,POINT (4.84010095150771 45.729733227019096)
Collège Martin Luther King,COLLEGE,39 avenue des Tilleuls ,69780,Mions,POINT (4.954285738262602 45.66941514849665)
Collège Jean Zay,COLLEGE,2 boulevard des Sports BP 38 ,69530,Brignais,POINT (4.752918785595803 45.67838886616668)
Collège Paul Vallon,COLLEGE,Rue Renée Peillon ,69700,Givors,POINT (4.794823967779179 45.56947317598096)
Collège Ampère,COLLEGE,31 rue de la Bourse ,69289,Lyon 2e Arrondissement,POINT (4.837004388689782 45.7652833652115)
Collège Antoine de Saint-Exupéry,COLLEGE,82 rue Hénon ,69316,Lyon 4e Arrondissement,POINT (4.8218894744007565 45.77966183894726)
Collège Lacassagne,COLLEGE,93 rue Antoine Charial ,69003,Lyon 3e Arrondissement,POINT (4.870405383851495 45.757760030497714)
Collège Jean Moulin,COLLEGE,1 place des Minimes ,69321,Lyon 5e Arrondissement,POINT (4.820790437022872 45.75740997164968)
Collège Jean Perrin,COLLEGE,14 rue du Maréchal de Lattre de Tassigny ,69009,Lyon 9e Arrondissement,POINT (4.817222681179546 45.7947171087417)
Collège Claude Bernard,COLLEGE,234 rue Philippe Héron BP 475 ,69665,Villefranche-sur-Saône,POINT (4.712028447764922 45.98934570179681)
Collège Marie Laurencin,COLLEGE,75 route de Saint-Clément ,69173,Tarare,POINT (4.444735523834281 45.896641185418495)
Section d'enseignement général et professionnel adapté du Collège Les Quatre Vents,SECTION ENSEIGNT GEN. ET PROF. ADAPTE,326 avenue du 11 Novembre BP 0115 69593 L ARBRESLE CEDEX,69593,L'Arbresle,POINT (4.607994864735114 45.83167177184721)
Section d'enseignement général et professionnel adapté du Collège Paul Vallon,SECTION ENSEIGNT GEN. ET PROF. ADAPTE,Rue RENEE PEILLON 69700 GIVORS,69700,Givors,POINT (4.794823967779179 45.56947317598096)
Collège Jean de Verrazane,COLLEGE,5 place Ferber ,69009,Lyon 9e Arrondissement,POINT (4.8045964418779015 45.77380490985095)
Collège Olivier de Serres,COLLEGE,8 allée Jacques Brel ,69330,Meyzieu,POINT (5.019723356426327 45.78050675920103)
Section d'enseignement général et professionnel adapté du Collège Bois Franc,SECTION ENSEIGNT GEN. ET PROF. ADAPTE,525 route DU BEAUJOLAIS BP 10 69830 ST GEORGES DE RENEINS,69830,Saint-Georges-de-Reneins,POINT (4.713020512701666 46.060652918137535)
Section d'enseignement général et professionnel adapté du Collège Professeur Dargent,SECTION ENSEIGNT GEN. ET PROF. ADAPTE,5 rue JEANNE KOEHLER 69003 LYON,69003,Lyon 3e Arrondissement,POINT (4.870113433686356 45.74669927171092)
Collège Louis Lachenal,COLLEGE,29 rue du Plâtre ,69720,Saint-Laurent-de-Mure,POINT (5.035016587702933 45.68700148861509)
Collège René Cassin,COLLEGE,7 chemin des Romanettes ,69960,Corbas,POINT (4.900250754176464 45.656318996139795)
Collège Aux Lazaristes - La Salle,COLLEGE,3 place Saint-Jean ,69005,Lyon 5e Arrondissement,POINT (4.8263706273566465 45.76066325546817)
Collège Sainte-Marie,COLLEGE,4 montée de Saint-Barthélemy ,69005,Lyon 5e Arrondissement,POINT (4.8266696521466566 45.76558270226975)
Collège Lestonnac,COLLEGE,2 boulevard des Tchécoslovaques ,69007,Lyon 7e Arrondissement,POINT (4.859176410749825 45.74883832927284)
Collège Assomption Bellevue,COLLEGE,39 quai Jean Jacques Rousseau ,69350,La Mulatière,POINT (4.812793124530459 45.73332460098048)
Collège Saint-Thomas d'Aquin,COLLEGE,56 rue du Perron ,69600,Oullins-Pierre-Bénite,POINT (4.809567410466668 45.71061425265925)
Collège Saint-Thomas d'Aquin,COLLEGE,56 rue du Perron ,69600,Oullins-Pierre-Bénite,POINT (4.809567410466668 45.71061425265925)
Collège Champagnat,COLLEGE,250 rue Chanoine Pavailler ,69590,Saint-Symphorien-sur-Coise,POINT (4.452242578557498 45.62909091824532)
Collège les Chartreux - Croix Rousse,COLLEGE,58 rue Pierre Dupont ,69001,Lyon 1er Arrondissement,POINT (4.822450416572123 45.77180923070537)
Collège Saint-Louis - Saint-Bruno,COLLEGE,1 cours Général Giraud ,69001,Lyon 1er Arrondissement,POINT (4.816899820725747 45.77104847348305)
Collège Saint-Marc,COLLEGE,11 rue Soeur Bouvier ,69005,Lyon 5e Arrondissement,POINT (4.811952578702568 45.7526136243321)
Collège Chevreul,COLLEGE,21 rue Sala ,69002,Lyon 2e Arrondissement,POINT (4.828979376265525 45.756045274818966)
Collège Charles de Foucauld,COLLEGE,9 rue de l'Est ,69003,Lyon 3e Arrondissement,POINT (4.878259063792171 45.752392592837225)
Collège les Chartreux - Saint-Charles,COLLEGE,22 rue André Bonin ,69004,Lyon 4e Arrondissement,POINT (4.812338098206295 45.77602360222556)
Collège Notre-Dame des Minimes,COLLEGE,65 rue des Aqueducs ,69005,Lyon 5e Arrondissement,POINT (4.789340438644234 45.759516586849564)
Collège du Centre scolaire La Favorite-Sainte-Thérèse,COLLEGE,20 avenue du Point du Jour ,69005,Lyon 5e Arrondissement,POINT (4.8059432426854585 45.75645342316099)
Collège Déborde,COLLEGE,72 rue Ney ,69006,Lyon 6e Arrondissement,POINT (4.85566649806389 45.76665507511264)
Collège Pierre Termier - Site Montplaisir,COLLEGE,23 rue des Alouettes ,69008,Lyon 8e Arrondissement,POINT (4.87301812515899 45.74148801337144)
Collège Notre-Dame de Bellegarde,COLLEGE,22 avenue Gambetta ,69250,Neuville-sur-Saône,POINT (4.841877076437331 45.87049721363621)
Collège les Chassagnes,COLLEGE,13 chemin des Chassagnes ,69600,Oullins-Pierre-Bénite,POINT (4.809773718120045 45.72273466788777)
Collège Saint-Joseph,COLLEGE,7 rue Lieutenant Audras ,69160,Tassin-la-Demi-Lune,POINT (4.757983594801419 45.760208734973375)
Collège Notre-Dame de Mongré,COLLEGE,276 avenue Saint-Exupéry ,69652,Villefranche-sur-Saône,POINT (4.711890398645356 45.99101409091182)
Collège Immaculée Conception,COLLEGE,74 place Grandclément BP 41023 ,69613,Villeurbanne,POINT (4.889951528427869 45.759213160577325)
Collège la Perrière,COLLEGE,Chemin de la Maillarde ,69510,Soucieu-en-Jarrest,POINT (4.695297531563371 45.67613562395933)
Section d'enseignement général et professionnel adapté du Collège Jean Moulin,SECTION ENSEIGNT GEN. ET PROF. ADAPTE,229 rue du Collège 69400 VILLEFRANCHE SUR SAONE,69400,Villefranche-sur-Saône,POINT (4.714890389447981 45.98378288646118)
Collège Hector Berlioz,COLLEGE,54 route de Ternay ,69360,Communay,POINT (4.822664639596856 45.60457014299716)
Collège du cinéma - Bertrand Tavernier (ex collège du Tonkin),COLLEGE,2 allée du Lys Orange ,69100,Villeurbanne,POINT (4.863710113971355 45.77637926438256)
Section d'enseignement général et professionnel adapté du Collège Louis Jouvet,SECTION ENSEIGNT GEN. ET PROF. ADAPTE,23 rue DOCTEUR DOLARD BP 3038 69605 VILLEURBANNE CEDEX,69605,Villeurbanne,POINT (4.87253436472823 45.76108176835967)
Collège Saint-Louis de la Guillotière,COLLEGE,10 rue du Béguin ,69007,Lyon 7e Arrondissement,POINT (4.849077936086817 45.748722438472804)
Ecole secondaire privée La Maison d'Arqam,COLLEGE,27 rue DES FRERES AMADEO 69200 VENISSIEUX,69200,Vénissieux,POINT (4.890471608817136 45.71174777369062)
Ecole secondaire privée Horizons,COLLEGE,74 boulevard du 11 Novembre 1918 69100 VILLEURBANNE,69100,Villeurbanne,POINT (4.8672874634387355 45.7786296142956)
Collège la Xavière,COLLEGE,1 rue des Fontaines ,69970,Chaponnay,POINT (4.933134001034666 45.63114702195263)
Collège Jacques Coeur,COLLEGE,8 rue du Charpenay ,69210,Lentilly,POINT (4.665184441281357 45.816364437642605)
Collège Aux Lazaristes - La Salle,COLLEGE,Chemin de la Sablière ,69760,Limonest,POINT (4.768763488886685 45.83467173248947)
Collège Paul d'Aubarède,COLLEGE,85 avenue Charles de Gaulle ,69230,Saint-Genis-Laval,POINT (4.791910334046764 45.68185819207675)
Ecole secondaire privée Centre de Référence pour l'Evaluation Neuropsychologique de l'Enfant,COLLEGE,62 rue Montgolfier 69006 LYON,69006,Lyon 6e Arrondissement,POINT (4.8490113877258825 45.77180847884495)
Collège Louis Leprince-Ringuet,COLLEGE,20 rue Louis Rey BP 220 ,69740,Genas,POINT (5.011371984237088 45.73221016780147)
Collège Françoise Dolto,COLLEGE,58 avenue Paul Doumer ,69630,Chaponost,POINT (4.7457639999221355 45.71039305581111)
Ecole secondaire privée à enseignement spécifique Nescens,COLLEGE SPECIALISE,13 place Gutenberg 69300 CALUIRE ET CUIRE,69300,Caluire-et-Cuire,POINT (4.850506594045788 45.794468120445956)
Collège de la cité scolaire internationale,COLLEGE,2 place de Montréal ,69361,Lyon 7e Arrondissement,POINT (4.821920579586814 45.72830363050331)
Section d'enseignement général et professionnel adapté du Collège privé Mère Térésa,SECTION ENSEIGNT GEN. ET PROF. ADAPTE,37 rue GERVAIS BUSSIERE 69100 VILLEURBANNE,69100,Villeurbanne,POINT (4.869906491245023 45.773743851297176)
Collège Beth Menahem,COLLEGE,293 rue Francis de Pressensé ,69100,Villeurbanne,POINT (4.897064879003308 45.76849935704521)
Section d'enseignement général et professionnel adapté du Collège Marie Laurencin,SECTION ENSEIGNT GEN. ET PROF. ADAPTE,75 route DE SAINT CLEMENT BP 137 69173 TARARE CEDEX,69173,Tarare,POINT (4.444735523834281 45.896641185418495)
Collège Théodore Monod,COLLEGE,34 rue Jean Jaurès ,69500,Bron,POINT (4.903545049869182 45.730537989010315)
Collège Georges Charpak,COLLEGE,47 chemin des Andrés ,69126,Brindas,POINT (4.703621165797147 45.72206344255295)
Collège Gilbert Dru,COLLEGE,42 rue Jeanne Hachette ,69003,Lyon 3e Arrondissement,POINT (4.863728792262061 45.75320022308819)
Collège le Petit Pont,COLLEGE,730 avenue des hauts du lyonnais ,69850,Saint-Martin-en-Haut,POINT (4.553935487962847 45.65788563180425)
Section d'Enseignement Général et Professionnel Adapté du Collège Emile Zola,SECTION ENSEIGNT GEN. ET PROF. ADAPTE,Avenue de Verdun 69220 BELLEVILLE EN BEAUJOLAIS,69220,Belleville-en-Beaujolais,POINT (4.7492541426159125 46.10498945788737)
Collège Christiane Bernardin,COLLEGE,7 bis Grande rue ,69340,Francheville,POINT (4.775001492956221 45.740847939631344)
Collège Privé Al Kindi,COLLEGE,17 RUE SULLY 69150 DECINES CHARPIEU,69150,Décines-Charpieu,POINT (4.975825350229936 45.7706972596651)
Ecole des enfants intellectuellement précoces de Lyon,COLLEGE,27 rue RAOUL SERVANT 69007 LYON,69007,Lyon 7e Arrondissement,POINT (4.8376610263313555 45.74567273688277)
Collège La Tourette,COLLEGE,80 boulevard de la Croix-Rousse ,69001,Lyon 1er Arrondissement,POINT (4.824942479785037 45.77364696686043)
Collège Charles de Gaulle,COLLEGE,48 route de Givors ,69780,Saint-Pierre-de-Chandieu,POINT (5.004029988525339 45.64722494323503)
Collège Jacques Chirac,COLLEGE,29 chemin du Chabert ,69400,Limas,POINT (4.700649827492931 45.97835293035336)
Collège Simone Veil,COLLEGE,989 route de L'Arbresle ,69380,Châtillon,POINT (4.641675580321432 45.86735067784399)
Ecole secondaire privée Bienheureux François de Fatima,COLLEGE,3 rue DES DEUX AMANTS 69009 LYON,69009,Lyon 9e Arrondissement,POINT (4.797247698680094 45.76916370052223)
