nom,nature,code_postal,adresse,insee,commune,lon,lat
Lycée professionnel Danielle Casanova,LYCEE PROFESSIONNEL,69700,7 avenue Danielle Casanova ,69091,Givors,4.766439826799746,45.59404718701789
Lycée Ampère,LYCEE ENSEIGNT GENERAL ET TECHNOLOGIQUE,69002,29 rue de la Bourse ,69382,Lyon 2e Arrondissement,4.837004388689782,45.7652833652115
Lycée du Parc,LYCEE D ENSEIGNEMENT GENERAL,69458,1 boulevard Anatole France ,69386,Lyon 6e Arrondissement,4.856922375378193,45.771702861164115
Lycée Édouard Herriot,LYCEE ENSEIGNT GENERAL ET TECHNOLOGIQUE,69455,6 place Edgar Quinet ,69386,Lyon 6e Arrondissement,4.845110421330025,45.765689703792646
Lycée Saint-Just,LYCEE ENSEIGNT GENERAL ET TECHNOLOGIQUE,69005,21 rue des Farges ,69385,Lyon 5e Arrondissement,4.8212424666408005,45.75679648335028
Ecole technologique privée All In School,LYCEE D ENSEIGNEMENT TECHNOLOGIQUE,69150,13 rue Marceau 69150 DECINES CHARPIEU,69275,Décines-Charpieu,4.976463470633778,45.76180177721289
Lycée Lacassagne,LYCEE ENSEIGNT GENERAL ET TECHNOLOGIQUE,69425,93 rue Antoine Charial ,69383,Lyon 3e Arrondissement,4.870405383851495,45.757760030497714
Lycée Antoine de Saint-Exupéry,LYCEE ENSEIGNT GENERAL ET TECHNOLOGIQUE,69316,82 rue Hénon ,69384,Lyon 4e Arrondissement,4.8218894744007565,45.77966183894726
Ecole privée Silvya Terrade - International Silvya Terrade,LYCEE PROFESSIONNEL,69006,73 rue LOUIS BLANC 69006 LYON,69386,Lyon 6e Arrondissement,4.85430319621442,45.76530206809765
Ecole professionnelle privée Ateliers d'Apprentissage de la Giraudière,LYCEE PROFESSIONNEL,69690,LA GIRAUDIERE LA GIRAUDIERE 69690 BRUSSIEU,69031,Brussieu,4.540939677100338,45.749189999251634
Lycée Juliette Récamier,LYCEE ENSEIGNT GENERAL ET TECHNOLOGIQUE,69287,57 rue de la Charité ,69382,Lyon 2e Arrondissement,4.831210420797867,45.75219537957104
Lycée professionnel Barthélemy Thimonnier,LYCEE PROFESSIONNEL,69210,160 avenue André Lassagne ,69010,L'Arbresle,4.613050900510913,45.83432422833564
Institut Sandar La Salle,LYCEE PROFESSIONNEL,69579,392 chemin de la Sablière BP 17 ,69116,Limonest,4.768763488886685,45.83467173248947
Lycée professionnel Tony Garnier,LYCEE PROFESSIONNEL,69500,235 boulevard Pinel ,69029,Bron,4.887129411109419,45.72672911256356
Lycée Auguste et Louis Lumière,LYCEE ENSEIGNT GENERAL ET TECHNOLOGIQUE,69372,50 boulevard des Etats-Unis ,69388,Lyon 8e Arrondissement,4.862068356620207,45.73611182403345
Lycée Parc Chabrières,LYCEE ENSEIGNT GENERAL ET TECHNOLOGIQUE,69600,9 chemin des Chassagnes ,69149,Oullins-Pierre-Bénite,4.809790411960818,45.72257677330354
Lycée polyvalent René Cassin,LYCEE POLYVALENT,69173,75 route de Saint-Clément BP 137 ,69243,Tarare,4.444735523834281,45.896641185418495
Lycée professionnel Diderot,LYCEE PROFESSIONNEL,69201,41 cours Général Giraud ,69381,Lyon 1er Arrondissement,4.822379789545433,45.76935588540566
Lycée professionnel Louise Labé,LYCEE PROFESSIONNEL,69007,65 boulevard Yves Farge ,69387,Lyon 7e Arrondissement,4.831353109291624,45.739688227130664
Lycée professionnel Magenta,LYCEE PROFESSIONNEL,69100,64 rue Magenta ,69266,Villeurbanne,4.8714046041468455,45.766139267369326
Lycée La Martinière Diderot - site Diderot,LYCEE ENSEIGNT GENERAL ET TECHNOLOGIQUE,69283,41 cours Général Giraud ,69381,Lyon 1er Arrondissement,4.830024213685477,45.76801344610211
Section d'enseignement professionnel du Lycée polyvalent François Mansart,SECTION D ENSEIGNEMENT PROFESSIONNEL,69240,Rue JACQUARD 69240 THIZY LES BOURGS,69248,Thizy-les-Bourgs,4.312657072592858,46.02471434450935
Lycée La Martinière Diderot - site Terreaux,LYCEE ENSEIGNT GENERAL ET TECHNOLOGIQUE,69283,18 place Gabriel Rambaud ,69381,Lyon 1er Arrondissement,4.830024213685477,45.76801344610211
Lycée professionnel Jean Lurçat,LYCEE PROFESSIONNEL,69008,4 rue Ludovic Arrachart ,69388,Lyon 8e Arrondissement,4.8629994310375295,45.73232685427198
Lycée professionnel Hélène Boucher,LYCEE PROFESSIONNEL,69631,18 rue Rosenberg BP 21 ,69259,Vénissieux,4.890852272727113,45.698211315827606
Lycée polyvalent Claude Bernard,LYCEE POLYVALENT,69665,234 rue Philippe Héron BP 475 ,69264,Villefranche-sur-Saône,4.712028447764922,45.98934570179681
Lycée polyvalent Frédéric Faÿs,LYCEE POLYVALENT,69615,46 rue Frédéric Faÿs BP 4076 ,69266,Villeurbanne,4.904947114549764,45.76193606556021
Lycée Marcel Sembat,LYCEE ENSEIGNT GENERAL ET TECHNOLOGIQUE,69694,20 bd Marcel Sembat ,69259,Vénissieux,4.882702509812829,45.71648783527622
Section d'enseignement professionnel du Lycée polyvalent Frédéric Fays,SECTION D ENSEIGNEMENT PROFESSIONNEL,69615,46 rue Frédéric Fays BP 4076 69615 VILLEURBANNE CEDEX,69266,Villeurbanne,4.904947114549764,45.76193606556021
Lycée professionnel Camille Claudel,LYCEE PROFESSIONNEL,69004,15 rue de Cuire ,69384,Lyon 4e Arrondissement,4.830152393344741,45.77681781377212
Lycée Jean Perrin,LYCEE ENSEIGNT GENERAL ET TECHNOLOGIQUE,69338,48 rue Pierre Baizet BP 41 ,69389,Lyon 9e Arrondissement,4.809199564976039,45.788395004213214
Ecole générale privée Saint-Augustin,LYCEE D ENSEIGNEMENT GENERAL,69340,10 avenue DU CHATER 69340 FRANCHEVILLE,69089,Francheville,4.772261503467737,45.74951448224092
Lycée horticole de Lyon-Dardilly - Paysage et environnement,LYCEE ENSEIGNT GENERAL ET TECHNOLOGIQUE,69570,26 chemin de la Bruyère ,69072,Dardilly,4.770043077927612,45.814224317844804
"Lycée d'enseignement général, technologique et professionnel agricole André Paillot",LYCEE ENSEIGNT GENERAL ET TECHNOLOGIQUE,69230,4 chemin des Grabelières ,69204,Saint-Genis-Laval,4.787305105406347,45.66491687475812
Lycée professionnel Joseph-Marie Jacquard,LYCEE PROFESSIONNEL,69921,20-28 rue Louis Auguste Blanqui BP 35 ,69149,Oullins-Pierre-Bénite,4.810123605009668,45.71189515466997
Lycée professionnel Alfred de Musset,LYCEE PROFESSIONNEL,69100,128 rue de la Poudrette ,69266,Villeurbanne,4.921085557544194,45.756878439593805
Lycée professionnel Marie Curie,LYCEE PROFESSIONNEL,69100,64 boulevard Eugène Réguillon ,69266,Villeurbanne,4.896346783360018,45.761527027079175
Lycée professionnel Edmond Labbé,LYCEE PROFESSIONNEL,69600,9 chemin des Chassagnes ,69149,Oullins-Pierre-Bénite,4.809790411960818,45.72257677330354
Lycée professionnel Gustave Eiffel,LYCEE PROFESSIONNEL,69530,6 avenue Ferdinand Gaillard ,69027,Brignais,4.755361535635281,45.67592161620921
École supérieure d'arts appliqués - La Martinière Diderot,LYCEE ENSEIGNT GENERAL ET TECHNOLOGIQUE,69283,18 place Gabriel Rambaud ,69381,Lyon 1er Arrondissement,4.830024213685477,45.76801344610211
Ecole privée multilingue Ombrosa,LYCEE D ENSEIGNEMENT GENERAL,69300,95 quai Clémenceau 69300 CALUIRE ET CUIRE,69034,Caluire-et-Cuire,4.843866846082679,45.80725374886751
Lycée polyvalent Édouard Branly,LYCEE POLYVALENT,69245,25 rue de Tourvielle ,69385,Lyon 5e Arrondissement,4.791799503028346,45.75308603804028
Ecole technologique privée Arts Appliqués Bellecour,LYCEE D ENSEIGNEMENT TECHNOLOGIQUE,69002,16 rue FRANCOIS DAUPHIN 69002 LYON,69382,Lyon 2e Arrondissement,4.832248988580166,45.75550130631655
Lycée Docteur Charles Mérieux,LYCEE ENSEIGNT GENERAL ET TECHNOLOGIQUE,69007,2 avenue du pont Pasteur ,69387,Lyon 7e Arrondissement,4.822634469258512,45.732598465562496
Lycée La Martinière Duchère,LYCEE ENSEIGNT GENERAL ET TECHNOLOGIQUE,69009,300 avenue Andreï Sakharov ,69389,Lyon 9e Arrondissement,4.796272598092091,45.78556787451016
Lycée de l'école Juive de Lyon,LYCEE D ENSEIGNEMENT GENERAL,69100,40 rue Alexandre Boutin ,69266,Villeurbanne,4.868782771327288,45.768340008364206
Lycée polyvalent Hector Guimard,LYCEE POLYVALENT,69361,23 rue Claude Veyron ,69387,Lyon 7e Arrondissement,4.857929994808795,45.74567026209121
Lycée Colbert,LYCEE ENSEIGNT GENERAL ET TECHNOLOGIQUE,69372,20 rue Louis Jouvet ,69388,Lyon 8e Arrondissement,4.860280068704424,45.74497037458606
Lycée professionnel Jacques de Flesselles,LYCEE PROFESSIONNEL,69001,15 rue de Flesselles ,69381,Lyon 1er Arrondissement,4.826625580277794,45.77110128732064
Lycée Pierre Brossolette,LYCEE ENSEIGNT GENERAL ET TECHNOLOGIQUE,69100,1 esplanade Agnès Varda ,69266,Villeurbanne,4.87756684078449,45.77091349213091
Lycée professionnel du Premier Film,LYCEE PROFESSIONNEL,69008,14 rue du Premier Film ,69388,Lyon 8e Arrondissement,4.868953326384553,45.74522597915817
Section d'enseignement professionnel du Lycée polyvalent René Cassin,SECTION D ENSEIGNEMENT PROFESSIONNEL,69173,75 route DE SAINT CLEMENT BP 137 69173 TARARE CEDEX,69243,Tarare,4.444735523834281,45.896641185418495
Lycée professionnel Émile Béjuit,LYCEE PROFESSIONNEL,69500,282 route de Genas ,69029,Bron,4.905798563027195,45.751362181911325
Lycée agro-viticole Bel Air,LYCEE PROFESSIONNEL,69220,394 route Henry Fessy ,69019,Belleville-en-Beaujolais,4.70522260519587,46.11628415804506
Lycée Charles de Foucauld,LYCEE ENSEIGNT GENERAL ET TECHNOLOGIQUE,69003,6 rue Bara ,69383,Lyon 3e Arrondissement,4.872081158529929,45.751009093683976
Lycée Notre-Dame des Minimes,LYCEE ENSEIGNT GENERAL ET TECHNOLOGIQUE,69005,65 rue des Aqueducs ,69385,Lyon 5e Arrondissement,4.789340438644234,45.759516586849564
Lycée Sainte-Marie,LYCEE ENSEIGNT GENERAL ET TECHNOLOGIQUE,69321,4 montée Saint-Barthélemy ,69385,Lyon 5e Arrondissement,4.8266696521466566,45.76558270226975
Lycée Sainte-Marie (annexe du lycée de Lyon),LYCEE ENSEIGNT GENERAL ET TECHNOLOGIQUE,69330,1 rue Caroline Aigle ,69385,Lyon 5e Arrondissement,4.8266696521466566,45.76558270226975
Lycée Aux Lazaristes - La Salle site Fourvière,LYCEE ENSEIGNT GENERAL ET TECHNOLOGIQUE,69321,24 montée Saint-Barthélemy ,69385,Lyon 5e Arrondissement,4.826210245519437,45.76387064791032
Lycée Déborde,LYCEE D ENSEIGNEMENT GENERAL,69006,72 rue Ney ,69386,Lyon 6e Arrondissement,4.85566649806389,45.76665507511264
Lycée Belmont,LYCEE ENSEIGNT GENERAL ET TECHNOLOGIQUE,69007,43 rue Pasteur ,69387,Lyon 7e Arrondissement,4.8397495460974636,45.75268421037933
Lycée Pierre Termier,LYCEE D ENSEIGNEMENT GENERAL,69008,23 rue des Alouettes ,69388,Lyon 8e Arrondissement,4.87301812515899,45.74148801337144
Lycée Assomption Bellevue,LYCEE ENSEIGNT GENERAL ET TECHNOLOGIQUE,69350,39 quai Jean-Jacques Rousseau ,69142,La Mulatière,4.812793124530459,45.73332460098048
Lycée Notre-Dame de Bellegarde,LYCEE D ENSEIGNEMENT GENERAL,69250,22 avenue Gambetta BP 47 ,69143,Neuville-sur-Saône,4.841877076437331,45.87049721363621
Lycée des Chassagnes,LYCEE ENSEIGNT GENERAL ET TECHNOLOGIQUE,69600,13 chemin des Chassagnes ,69149,Oullins-Pierre-Bénite,4.809773718120045,45.72273466788777
Annexe du lycée Saint-Thomas d'Aquin Veritas,LYCEE ENSEIGNT GENERAL ET TECHNOLOGIQUE,69440,6 chemin du Laud ,69149,Oullins-Pierre-Bénite,4.809567410466668,45.71061425265925
Lycée Saint-Thomas d'Aquin Veritas,LYCEE ENSEIGNT GENERAL ET TECHNOLOGIQUE,69600,56 rue du Perron ,69149,Oullins-Pierre-Bénite,4.809567410466668,45.71061425265925
Lycée Saint-Joseph,LYCEE D ENSEIGNEMENT GENERAL,69160,7 rue du Lieutenant Audras ,69244,Tassin-la-Demi-Lune,4.757983594801419,45.760208734973375
Lycée Notre-Dame de Mongré,LYCEE D ENSEIGNEMENT GENERAL,69400,276 avenue Saint-Exupéry ,69264,Villefranche-sur-Saône,4.711890398645356,45.99101409091182
Lycée Immaculée Conception,LYCEE D ENSEIGNEMENT GENERAL,69613,74 place Jules Grandclément BP 41023 ,69266,Villeurbanne,4.889951528427869,45.759213160577325
Ecole générale privée Cours Pascal,LYCEE D ENSEIGNEMENT GENERAL,69001,21 rue LONGUE 69001 LYON,69381,Lyon 1er Arrondissement,4.833726514426973,45.76540065068005
Lycée les Chartreux,LYCEE ENSEIGNT GENERAL ET TECHNOLOGIQUE,69001,58 rue Pierre Dupont ,69381,Lyon 1er Arrondissement,4.822450416572123,45.77180923070537
Lycée Saint-Marc,LYCEE ENSEIGNT GENERAL ET TECHNOLOGIQUE,69287,10 rue Sainte-Hélène ,69382,Lyon 2e Arrondissement,4.828890405287208,45.75506762421696
Lycée Chevreul Lestonnac,LYCEE ENSEIGNT GENERAL ET TECHNOLOGIQUE,69007,2 boulevard des Tchécoslovaques ,69387,Lyon 7e Arrondissement,4.858122687483846,45.74918266455861
Lycée Assomption Bellevue - Pôle enseignement supérieur,LYCEE ENSEIGNT GENERAL ET TECHNOLOGIQUE,69007,172 avenue Jean Jaurès ,69142,La Mulatière,4.812793124530459,45.73332460098048
Lycée La Favorite,LYCEE ENSEIGNT GENERAL ET TECHNOLOGIQUE,69322,62 rue de la Favorite ,69385,Lyon 5e Arrondissement,4.8059432426854585,45.75645342316099
Lycée de la Trinité,LYCEE D ENSEIGNEMENT GENERAL,69006,31 rue de Sèze ,69386,Lyon 6e Arrondissement,4.846630066427805,45.768222924414914
Lycée Saint-Louis - Saint-Bruno,LYCEE ENSEIGNT GENERAL ET TECHNOLOGIQUE,69283,16 rue des Chartreux ,69381,Lyon 1er Arrondissement,4.823230134737717,45.771956961970886
Lycée Chevreul Lestonnac - Site St Didier,LYCEE ENSEIGNT GENERAL ET TECHNOLOGIQUE,69370,1 route de Champagne ,69387,Lyon 7e Arrondissement,4.858122687483846,45.74918266455861
Section d'enseignement professionnel du Lycée polyvalent Louis Armand,SECTION D ENSEIGNEMENT PROFESSIONNEL,69651,507 avenue DU BEAUJOLAIS 69651 VILLEFRANCHE SUR SAONE CEDEX,69264,Villefranche-sur-Saône,4.705470448908744,45.99934335903276
Lycée Notre-Dame,LYCEE ENSEIGNT GENERAL ET TECHNOLOGIQUE,69657,72 rue des Jardiniers BP 213 ,69264,Villefranche-sur-Saône,4.72068099561914,45.988526443466725
Lycée ICOF,LYCEE D ENSEIGNEMENT TECHNOLOGIQUE,69005,8 avenue Debrousse ,69385,Lyon 5e Arrondissement,4.813896830276697,45.75073498110866
Lycée La Mache,LYCEE D ENSEIGNEMENT TECHNOLOGIQUE,69373,75 boulevard Jean XXIII ,69388,Lyon 8e Arrondissement,4.870617453961706,45.73714846838786
Lycée professionnel Saint-Marc,LYCEE PROFESSIONNEL,69287,4 rue Sainte-Hélène ,69382,Lyon 2e Arrondissement,4.828229766470231,45.7553233339019
Lycée ORT,LYCEE D ENSEIGNEMENT TECHNOLOGIQUE,69373,133 rue Marius Berliet ,69388,Lyon 8e Arrondissement,4.867663604414776,45.73812520090057
Lycée technologique privé Carrel,LYCEE D ENSEIGNEMENT TECHNOLOGIQUE,69006,119 rue Boileau ,69386,Lyon 6e Arrondissement,4.849633864919563,45.766219115761935
Lycée professionnel Saint-Joseph,LYCEE PROFESSIONNEL,69363,327 rue Garibaldi ,69387,Lyon 7e Arrondissement,4.852204163103425,45.747795618359525
Lycée professionnel privé Ateliers d'Apprentissage de l'Industrie,LYCEE PROFESSIONNEL,69120,148 AVENUE FRANKLIN ROOSEVELT 69120 VAULX EN VELIN,69256,Vaulx-en-Velin,4.9352345611918125,45.75494671959502
Lycée professionnel Orsel,LYCEE PROFESSIONNEL,69600,30 rue Orsel ,69149,Oullins-Pierre-Bénite,4.812452703964487,45.71646672088146
Lycée professionnel Japy,LYCEE PROFESSIONNEL,69203,1 place Louis Pradel BP 1152 ,69381,Lyon 1er Arrondissement,4.837567405242126,45.768049352422224
Lycée Aux Lazaristes - La Salle site Croix-Rousse,LYCEE ENSEIGNT GENERAL ET TECHNOLOGIQUE,69283,1 rue Neyret ,69381,Lyon 1er Arrondissement,4.830230362921921,45.77167247356671
Lycée professionnel la Favorite,LYCEE PROFESSIONNEL,69110,107 rue Commandant Charcot ,69202,Sainte-Foy-lès-Lyon,4.788070124934175,45.74630606948599
Lycée professionnel de la SEPR,LYCEE PROFESSIONNEL,69003,46 rue du professeur Rochaix ,69383,Lyon 3e Arrondissement,4.877238742993634,45.745688241069445
Lycée professionnel privé Saint-Louis - Saint-Bruno,LYCEE PROFESSIONNEL,69201,17 rue des Chartreux ,69381,Lyon 1er Arrondissement,4.823182420663778,45.772071224952
Centre d'enseignement professionnel et d'accueil des jeunes,LYCEE PROFESSIONNEL,69564,CHEMIN DE BERNICOT BP 70 69564 ST GENIS LAVAL CEDEX,69204,Saint-Genis-Laval,4.773520760382818,45.69385219994558
Lycée polyvalent Arnaud Beltrame,LYCEE POLYVALENT,69330,10E rue Jean Jaurès ,69282,Meyzieu,5.013142617950973,45.77013296071417
Ecole secondaire privée IPESS,LYCEE D ENSEIGNEMENT GENERAL,69007,181 avenue Jean Jaurès 69007 LYON,69387,Lyon 7e Arrondissement,4.836840805564323,45.7364373923854
Lycée général privé Acadomia Campus,LYCEE D ENSEIGNEMENT GENERAL,69007,2 rue DU VERCORS 69007 LYON,69387,Lyon 7e Arrondissement,4.826225375510137,45.72519491764442
Section d'enseignement professionnel du Lycée polyvalent privé Jehanne de France,SECTION D ENSEIGNEMENT PROFESSIONNEL,69009,6  RUE DE LA FRATERNELLE 69009 LYON,69389,Lyon 9e Arrondissement,4.803600472461575,45.76931901782648
Lycée professionnel Georges Lamarque,LYCEE PROFESSIONNEL,69144,10 route de Genève BP 27 ,69286,Rillieux-la-Pape,4.882526344086443,45.8037846212662
Lycée Champagnat,LYCEE ENSEIGNT GENERAL ET TECHNOLOGIQUE,69590,250 rue Chanoine Pavailler BP 40 ,69238,Saint-Symphorien-sur-Coise,4.452242578557498,45.62909091824532
Lycée polyvalent Louis Armand,LYCEE POLYVALENT,69651,"507 avenue du Beaujolais Gleizé, CS 60402 ",69264,Villefranche-sur-Saône,4.705849561137372,45.99919083640924
Lycée Don Bosco,LYCEE D ENSEIGNEMENT TECHNOLOGIQUE,69322,12 montée Saint-Laurent ,69385,Lyon 5e Arrondissement,4.819326031127019,45.751858101062915
Lycée professionnel Saint-Charles,LYCEE PROFESSIONNEL,69140,2831 route de Strasbourg ,69286,Rillieux-la-Pape,4.895287160774396,45.82026918705394
Lycée professionnel de coiffure de Lyon,LYCEE PROFESSIONNEL,69004,28-30 rue Valentin Couturier ,69384,Lyon 4e Arrondissement,4.827034399124273,45.77638015228251
Lycée professionnel de coiffure,LYCEE PROFESSIONNEL,69001,22 rue d'Algérie ,69381,Lyon 1er Arrondissement,4.832548510725717,45.767560832888755
Peyrefitte esthétique,LYCEE PROFESSIONNEL,69002,21-24 quai Tilsitt ,69382,Lyon 2e Arrondissement,4.826392332198185,45.75590795368299
Lycée Élie Vignal,COLLEGE SPECIALISE,69300,18 rue de Margnolles ,69034,Caluire-et-Cuire,4.83536240798309,45.784119189374536
Section d'enseignement professionnel du Lycée polyvalent  Colonel Arnaud Beltrame,SECTION D ENSEIGNEMENT PROFESSIONNEL,69330,10 E rue Jean Jaurès 69330 MEYZIEU,69282,Meyzieu,5.013142617950973,45.77013296071417
Lycée professionnel Marc Seguin,LYCEE PROFESSIONNEL,69694,20 boulevard Marcel Sembat ,69259,Vénissieux,4.882702509812829,45.71648783527622
Section d'enseignement professionnel du Lycée polyvalent François Rabelais,SECTION D ENSEIGNEMENT PROFESSIONNEL,69571,Chemin DU DODIN BP 24 69571 DARDILLY CEDEX,69072,Dardilly,4.761710242327352,45.81817277980965
Lycée polyvalent Camus-Sermenaz,LYCEE POLYVALENT,69140,2179 avenue de l'Europe ,69286,Rillieux-la-Pape,4.909636247775357,45.819904915077316
Section d'enseignement professionnel du Lycée polyvalent Camus-Sermenaz,SECTION D ENSEIGNEMENT PROFESSIONNEL,69140,2179 avenue de l'Europe 69140 RILLIEUX LA PAPE,69286,Rillieux-la-Pape,4.909636247775357,45.819904915077316
Eden School Lyon,ECOLE PROFESSIONNELLE SPECIALISEE,69100,31 place Jules Grandclément ,69266,Villeurbanne,4.873837868852141,45.76642944540066
Lycée horticole et paysager Lyon Pressin Don Bosco,LYCEE PROFESSIONNEL,69230,81 chemin de Beaunant ,69204,Saint-Genis-Laval,4.778961436331569,45.70896416250624
Lycée Jean Monnet,LYCEE PROFESSIONNEL,69590,304 boulevard de la Bardière ,69238,Saint-Symphorien-sur-Coise,4.461010997108385,45.62956373222764
Lycée polyvalent Jacques Brel,LYCEE POLYVALENT,69200,2 rue Albert Jacquard ,69259,Vénissieux,4.8806795919347365,45.694775921721615
Lycée polyvalent Charlie Chaplin,LYCEE POLYVALENT,69153,373 avenue Jean Jaurès CS 50701 ,69275,Décines-Charpieu,4.97569640166434,45.77263437420881
Lycée La Martinière Monplaisir,LYCEE ENSEIGNT GENERAL ET TECHNOLOGIQUE,69372,41 rue Antoine Lumière ,69388,Lyon 8e Arrondissement,4.867789437654129,45.74013626901012
Lycée professionnel André Cuzin,LYCEE PROFESSIONNEL,69300,42 chemin de Crépieux ,69034,Caluire-et-Cuire,4.856604301451287,45.800999216336436
Lycée Jean-Paul Sartre,LYCEE ENSEIGNT GENERAL ET TECHNOLOGIQUE,69675,93 avenue François Mitterrand ,69029,Bron,4.920177446026666,45.73722413510662
Ecole technique privée La Fabrique - Académie de Mécanique,LYCEE PROFESSIONNEL,69400,847 route DE FRANS 69400 VILLEFRANCHE SUR SAONE,69264,Villefranche-sur-Saône,4.732349281177441,45.9849204759172
Lycée professionnel les Canuts,LYCEE PROFESSIONNEL,69120,2 rue Ho-Chi-Minh ,69256,Vaulx-en-Velin,4.921146595554634,45.77943682089088
Lycée professionnel François Cevert,LYCEE PROFESSIONNEL,69132,104 chemin de la Sauvegarde BP 178 ,69081,Écully,4.788026856753198,45.78358574046549
Lycée professionnel Fernand Forest,LYCEE PROFESSIONNEL,69800,9 impasse Jacques Brel ,69290,Saint-Priest,4.948453608274266,45.68680986727376
Ecole professionnelle privée Atelier d'Apprentissage de Gorge de Loup,LYCEE PROFESSIONNEL,69009,105  AVENUE SIDOINE APOLLINAIRE 69009 LYON,69389,Lyon 9e Arrondissement,4.7976971444584136,45.76731276063197
Section d'enseignement professionnel du Lycée polyvalent Aragon-Picasso,SECTION D ENSEIGNEMENT PROFESSIONNEL,69700,12 chemin DE LA COTE A CAILLOUX 69700 GIVORS,69091,Givors,4.76035926177761,45.60134003688475
Lycée Notre-Dame de Bel Air,LYCEE ENSEIGNT GENERAL ET TECHNOLOGIQUE,69170,5 avenue des Belges ,69243,Tarare,4.438703202925955,45.89082969906824
Ecole professionnelle privée Académie d'Art Dentaire Lyon,LYCEE PROFESSIONNEL,69365,181 avenue Jean Jaurès BP 7086 69365 LYON CEDEX 07,69387,Lyon 7e Arrondissement,4.836840805564323,45.7364373923854
Lycée polyvalent Aragon-Picasso,LYCEE POLYVALENT,69700,12 chemin de la Côte à Cailloux ,69091,Givors,4.76035926177761,45.60134003688475
Lycée professionnel hôtelier la Vidaude,LYCEE PROFESSIONNEL,69230,Chemin de la Vidaude ,69204,Saint-Genis-Laval,4.779588745705091,45.69201903446252
Lycée professionnel Aux Lazaristes - La Salle,LYCEE PROFESSIONNEL,69283,1 rue Neyret ,69381,Lyon 1er Arrondissement,4.830230362921921,45.77167247356671
Lycée professionnel Don Bosco,LYCEE PROFESSIONNEL,69322,12 montée Saint-Laurent ,69385,Lyon 5e Arrondissement,4.819326031127019,45.751858101062915
Lycée professionnel privé Carrel,LYCEE PROFESSIONNEL,69006,119 rue Boileau ,69386,Lyon 6e Arrondissement,4.849633864919563,45.766219115761935
Lycée professionnel La Mache,LYCEE PROFESSIONNEL,69373,75 boulevard Jean XXIII ,69388,Lyon 8e Arrondissement,4.870617453961706,45.73714846838786
Lycée professionnel Notre-Dame,LYCEE PROFESSIONNEL,69657,72 rue des Jardiniers BP 213 ,69264,Villefranche-sur-Saône,4.72068099561914,45.988526443466725
Lycée professionnel ORT,LYCEE PROFESSIONNEL,69373,133 rue Marius Berliet ,69388,Lyon 8e Arrondissement,4.867663604414776,45.73812520090057
Cité scolaire internationale,LYCEE D ENSEIGNEMENT GENERAL,69361,2 place de Montréal ,69387,Lyon 7e Arrondissement,4.821920579586814,45.72830363050331
Lycée Condorcet,LYCEE ENSEIGNT GENERAL ET TECHNOLOGIQUE,69802,29 rue Edmond Rostand BP 261 ,69290,Saint-Priest,4.941858251293537,45.69417665608742
Section d'enseignement professionnel du Lycée polyvalent Hector Guimard,SECTION D ENSEIGNEMENT PROFESSIONNEL,69365,23 rue CLAUDE VEYRON 69365 LYON CEDEX 07,69387,Lyon 7e Arrondissement,4.857929994808795,45.74567026209121
Lycée polyvalent François Rabelais,LYCEE POLYVALENT,69571,Chemin du Dodin BP 24 ,69072,Dardilly,4.761710242327352,45.81817277980965
Lycée Blaise Pascal,LYCEE ENSEIGNT GENERAL ET TECHNOLOGIQUE,69260,2 avenue Bergeron ,69044,Charbonnières-les-Bains,4.742564126043531,45.77821988232572
Lycée polyvalent François Mansart,LYCEE POLYVALENT,69240,7 rue Jacquard BP 70 ,69248,Thizy-les-Bourgs,4.312657072592858,46.02471434450935
Lycée La Xavière,LYCEE ENSEIGNT GENERAL ET TECHNOLOGIQUE,69008,252 route de Vienne ,69388,Lyon 8e Arrondissement,4.853677610624295,45.72785704420177
Lycée Robert Doisneau,LYCEE ENSEIGNT GENERAL ET TECHNOLOGIQUE,69511,5 rue du Lycée BP 42 ,69256,Vaulx-en-Velin,4.918619883571236,45.77659199409946
Lycée René Descartes,LYCEE ENSEIGNT GENERAL ET TECHNOLOGIQUE,69230,145 avenue de Gadagne ,69204,Saint-Genis-Laval,4.784732489578301,45.69047129788534
Lycée polyvalent Aiguerande,LYCEE POLYVALENT,69823,2 place Georges Dutrève BP 50211 ,69019,Belleville-en-Beaujolais,4.746595498300483,46.10384236563821
Section d'enseignement professionnel du Lycée polyvalent Claude Bernard,SECTION D ENSEIGNEMENT PROFESSIONNEL,69665,234 rue PHILIPPE HERON BP 475 69665 VILLEFRANCHE SUR SAONE CEDEX,69264,Villefranche-sur-Saône,4.712028447764922,45.98934570179681
Lycée polyvalent Jehanne de France,LYCEE POLYVALENT,69009,6 rue de la Fraternelle ,69389,Lyon 9e Arrondissement,4.803600472461575,45.76931901782648
Section d'enseignement professionnel du Lycée polyvalent Aiguerande,SECTION D ENSEIGNEMENT PROFESSIONNEL,69220,Place GEORGES DUTREVE BP 50211 69220 BELLEVILLE EN BEAUJOLAIS,69019,Belleville-en-Beaujolais,4.746595498300483,46.10384236563821
Section d'enseignement professionnel du Lycée polyvalent Edouard Branly,SECTION D ENSEIGNEMENT PROFESSIONNEL,69322,25 rue DE TOURVIELLE 69322 LYON CEDEX 05,69385,Lyon 5e Arrondissement,4.791799503028346,45.75308603804028
Ecole secondaire générale et professionnelle privée Academy OL,LYCEE POLYVALENT,69330,8 rue MELINA MERCOURI 69330 MEYZIEU,69282,Meyzieu,5.010978328995216,45.76679273396769
Lycée Rosa Parks,LYCEE ENSEIGNT GENERAL ET TECHNOLOGIQUE,69582,13 rue Pollet BP 10124 ,69143,Neuville-sur-Saône,4.84674312266278,45.87649688889654
Lycée général et technologique privé Al Kindi,LYCEE ENSEIGNT GENERAL ET TECHNOLOGIQUE,69150,17 rue SULLY 69150 DECINES CHARPIEU,69275,Décines-Charpieu,4.975825350229936,45.7706972596651
Section d'enseignement professionnel du Lycée polyvalent Charlie Chaplin,SECTION D ENSEIGNEMENT PROFESSIONNEL,69153,373 avenue Jean Jaurès 69153 DECINES CHARPIEU CEDEX,69275,Décines-Charpieu,4.97569640166434,45.77263437420881
Ecole professionnelle privée ELEA Presqu'île,LYCEE PROFESSIONNEL,69005,41 quai FULCHIRON 69005 LYON,69385,Lyon 5e Arrondissement,4.821566873893875,45.75192100858133
Lycée Saint-Charles,LYCEE ENSEIGNT GENERAL ET TECHNOLOGIQUE,69140,2831 route de Strasbourg ,69286,Rillieux-la-Pape,4.895287160774396,45.82026918705394
Ecole secondaire privée International School Of Lyon,LYCEE D ENSEIGNEMENT GENERAL,69110,80 CHEMIN DU GRAND ROULE 69110 STE FOY LES LYON,69202,Sainte-Foy-lès-Lyon,4.807272861544385,45.72963109506722
Section d'enseignement professionnel du Lycée polyvalent Jacques Brel,SECTION D ENSEIGNEMENT PROFESSIONNEL,69200,2 rue ALBERT JACQUARD 69200 VENISSIEUX,69259,Vénissieux,4.8806795919347365,45.694775921721615
Lycée Beth Hanna,LYCEE D ENSEIGNEMENT GENERAL,69100,293 rue Francis de Pressensé ,69266,Villeurbanne,4.897064879003308,45.76849935704521
Lycée Germaine Tillion,LYCEE ENSEIGNT GENERAL ET TECHNOLOGIQUE,69210,500 allée de Grands Champs ,69171,Sain-Bel,4.598478269340394,45.823700781199825
